STARLINK-32458          
1 61962U 24210D   26068.48005889  .00027456  00000+0  10037-2 0  9993
2 61962  42.9997 166.6667 0001136 256.8221 103.2504 15.27575869 75047
BANDWAGON-4 OBJECT M    
1 66304U 25248M   26068.03503276  .00023645  00000+0  95704-3 0  9995
2 66304  45.4108 294.9904 0012944 207.5285 152.4918 15.24295413 18037
