[{"OBJECT_NAME":"STARLINK-32458","OBJECT_ID":"2024-210D","EPOCH":"2026-03-09T11:31:17.088096","MEAN_MOTION":15.27575869,"ECCENTRICITY":0.00011369,"INCLINATION":42.9997,"RA_OF_ASC_NODE":166.6667,"ARG_OF_PERICENTER":256.8221,"MEAN_ANOMALY":103.2504,"EPHEMERIS_TYPE":0,"CLASSIFICATION_TYPE":"U","NORAD_CAT_ID":61962,"ELEMENT_SET_NO":999,"REV_AT_EPOCH":7504,"BSTAR":0.0010036825,"MEAN_MOTION_DOT":0.00027456,"MEAN_MOTION_DDOT":0},{"OBJECT_NAME":"BANDWAGON-4 OBJECT M","OBJECT_ID":"2025-248M","EPOCH":"2026-03-09T00:50:26.830464","MEAN_MOTION":15.24295413,"ECCENTRICITY":0.00129441,"INCLINATION":45.4108,"RA_OF_ASC_NODE":294.9904,"ARG_OF_PERICENTER":207.5285,"MEAN_ANOMALY":152.4918,"EPHEMERIS_TYPE":0,"CLASSIFICATION_TYPE":"U","NORAD_CAT_ID":66304,"ELEMENT_SET_NO":999,"REV_AT_EPOCH":1803,"BSTAR":0.00095703617,"MEAN_MOTION_DOT":0.00023645,"MEAN_MOTION_DDOT":0}]
